CZ-6A DEB               
1 54538U 22151KN  22342.25959809  .00000092  00000+0  93647-4 0  9999
2 54538  98.7387 345.6654 0123115  25.6714 335.0492 13.94379713  3411
CZ-6A DEB               
1 54539U 22151KP  22342.49577146  .00000059  00000+0  59078-4 0  9999
2 54539  98.8106 346.9496 0046925 356.5459   3.5381 14.08511205  3475
CZ-6A DEB               
1 54540U 22151KQ  22342.24598104  .00000593  00000+0  32798-3 0  9993
2 54540  98.7782 346.7384 0055350  70.1128 290.5998 14.14358449  3450
CZ-6A DEB               
1 54541U 22151KR  22342.39931969  .00000102  00000+0  87030-4 0  9996
2 54541  98.8197 346.8126 0061858  20.4507 339.9118 14.06055063  3455
CZ-6A DEB               
1 54542U 22151KS  22342.24245216  .00000496  00000+0  30024-3 0  9990
2 54542  98.8181 346.8415 0036701   4.6523 355.4982 14.10696966  3440
CZ-6A DEB               
1 54543U 22151KT  22342.47389460  .00001646  00000+0  48315-3 0  9996
2 54543  98.8508 348.5731 0133241 216.6411 142.5609 14.40239610  3557
CZ-6A DEB               
1 54544U 22151KU  22342.49383418  .00000264  00000+0  15376-3 0  9992
2 54544  98.8088 347.2619 0044671  76.0818 284.5319 14.16242530  3495
CZ-6A DEB               
1 54545U 22151KV  22342.48332735  .00000581  00000+0  35416-3 0  9997
2 54545  98.8130 346.9823 0056761 320.8024  38.9042 14.09191869  3471
CZ-6A DEB               
1 54546U 22151KW  22342.31290915  .00000190  00000+0  12132-3 0  9999
2 54546  98.7923 346.9044 0024662  42.3071 317.9999 14.14556004  3461
CZ-6A DEB               
1 54547U 22151KX  22341.98669636  .00003672  00000+0  21574-2 0  9999
2 54547  98.8037 346.2820 0115928  59.7109 301.5470 14.05348258  3423
CZ-6A DEB               
1 54548U 22151KY  22341.94940430  .00004550  00000+0  17133-2 0  9992
2 54548  98.6520 346.3063 0065237 209.4971 150.2524 14.30762910  3452
CZ-6A DEB               
1 54549U 22151KZ  22342.47149762  .00001548  00000+0  50094-3 0  9999
2 54549  98.6358 346.9693 0118795 220.7323 138.4935 14.36561447  3544
CZ-6A DEB               
1 54550U 22151LA  22342.48995590  .00000974  00000+0  37102-3 0  9997
2 54550  98.7514 347.5466 0072362 146.6714 213.9055 14.31719925  3537
CZ-6A DEB               
1 54551U 22151LB  22342.29745291  .00000833  00000+0  60413-3 0  9993
2 54551  98.7764 346.0201 0110585  20.5535 340.0026 13.96203172  3450
CZ-6A DEB               
1 54552U 22151LC  22342.30299194  .00000134  00000+0  97860-4 0  9993
2 54552  98.8352 347.0369 0034280   8.8827 351.2944 14.11250749  3454
CZ-6A DEB               
1 54553U 22151LD  22342.24021355  .00006299  00000+0  20966-2 0  9998
2 54553  98.7118 347.1362 0119098 230.6302 128.4284 14.34033173  3504
CZ-6A DEB               
1 54554U 22151LE  22341.98867691  .00000203  00000+0  14088-3 0  9998
2 54554  98.8325 346.6194 0050310 333.5574  26.3030 14.09052463  3407
CZ-6A DEB               
1 54555U 22151LF  22342.47796155  .00000350  00000+0  16787-3 0  9991
2 54555  98.7892 347.4836 0044806 129.6893 230.8250 14.24730563  3518
CZ-6A DEB               
1 54556U 22151LG  22342.49347179  .00007767  00000+0  22967-2 0  9997
2 54556  98.7232 347.6940 0124598 216.0168 143.2576 14.39288507  3529
CZ-6A DEB               
1 54557U 22151LH  22342.48717936  .00000776  00000+0  21798-3 0  9994
2 54557  98.6994 347.7056 0141250 210.0131 149.2908 14.43310205  3566
CZ-6A DEB               
1 54558U 22151LJ  22341.95139539  .00000810  00000+0  43326-3 0  9993
2 54558  98.8097 346.6807 0060248  75.6121 285.1730 14.15000367  3417
CZ-6A DEB               
1 54559U 22151LK  22342.48876265  .00007221  00000+0  90722-3 0  9992
2 54559  98.6440 348.3490 0224368 182.5039 177.5059 14.66237620  3605
CZ-6A DEB               
1 54560U 22151LL  22342.24356127  .00000392  00000+0  25714-3 0  9999
2 54560  98.8025 346.5782 0061125  27.2939 333.1420 14.06784890  3406
CZ-6A DEB               
1 54561U 22151LM  22342.48844328  .00001413  00000+0  56710-3 0  9996
2 54561  98.8818 348.0964 0146846 257.6983 100.7722 14.24184367  3538
CZ-6A DEB               
1 54562U 22151LN  22342.24311281  .00000991  00000+0  42276-3 0  9990
2 54562  98.7656 347.1505 0068034 120.7505 240.0397 14.26069294  3507
CZ-6A DEB               
1 54563U 22151LP  22342.46439362  .00000941  00000+0  55196-3 0  9996
2 54563  98.8248 347.0810 0038626   9.1849 351.0020 14.10214755  3478
CZ-6A DEB               
1 54564U 22151LQ  22342.48619364  .00003136  00000+0  14649-2 0  9997
2 54564  98.7996 347.3803 0044476 100.3981 260.2213 14.20527970  3500
CZ-6A DEB               
1 54565U 22151LR  22342.21766996  .00004666  00000+0  14416-2 0  9994
2 54565  98.7184 347.2156 0153266 236.5317 122.1139 14.35249096  3513
CZ-6A DEB               
1 54566U 22151LS  22342.46240527  .00000318  00000+0  21487-3 0  9996
2 54566  98.8068 346.8066 0056795  12.1291 348.1230 14.06490554  3460
CZ-6A DEB               
1 54567U 22151LT  22342.44876780  .00000352  00000+0  23217-3 0  9992
2 54567  98.8208 346.9158 0056647  21.9484 338.4093 14.07220995  3479
CZ-6A DEB               
1 54568U 22151LU  22342.47271274  .00003330  00000+0  15324-2 0  9991
2 54568  98.7945 347.3660 0045132 104.8636 255.7546 14.21261891  3501
CZ-6A DEB               
1 54569U 22151LV  22342.22010887  .00006651  00000+0  21454-2 0  9996
2 54569  98.7013 347.0947 0124828 229.3989 129.6282 14.35153948  3534
CZ-6A DEB               
1 54570U 22151LW  22342.25673671  .00000686  00000+0  33185-3 0  9994
2 54570  98.8211 347.3324 0036833 112.0683 248.4411 14.21467878  3478
CZ-6A DEB               
1 54571U 22151LX  22342.30406350  .00000740  00000+0  45753-3 0  9994
2 54571  98.7227 346.1404 0061550  33.0164 327.4825 14.07367420  3452
CZ-6A DEB               
1 54572U 22151LY  22342.48910018  .00006855  00000+0  21462-2 0  9998
2 54572  98.7065 347.4271 0137093 231.0661 127.8239 14.35704774  3108
CZ-6A DEB               
1 54573U 22151LZ  22342.30479690  .00002883  00000+0  89387-3 0  9994
2 54573  98.7040 347.3242 0116672 215.1498 144.1952 14.38094237  3079
CZ-6A DEB               
1 54574U 22151MA  22342.29496875  .00002540  00000+0  77024-3 0  9992
2 54574  98.6478 346.9641 0126046 218.2880 140.9308 14.38631977  3074
CZ-6A DEB               
1 54575U 22151MB  22341.19624626  .00003092  00000+0  80031-3 0  9993
2 54575  98.7377 346.5842 0175334 230.9773 127.5695 14.41846768  2922
CZ-6A DEB               
1 54576U 22151MC  22342.20973371  .00006108  00000+0  21295-2 0  9998
2 54576  98.6893 346.8656 0117581 236.2329 122.7609 14.31864563  3045
CZ-6A DEB               
1 54577U 22151MD  22342.29516024  .00004549  00000+0  15158-2 0  9994
2 54577  98.5043 345.8469 0107581 222.0036 137.2864 14.34826342  3073
CZ-6A DEB               
1 54578U 22151ME  22342.21748932  .00007393  00000+0  23753-2 0  9992
2 54578  98.6828 346.9752 0124764 229.0247 130.0092 14.35310021  3062
CZ-6A DEB               
1 54579U 22151MF  22342.24166488  .00006038  00000+0  20241-2 0  9990
2 54579  98.6368 346.6370 0115009 228.6440 130.4808 14.33953255  3055
CZ-6A DEB               
1 54580U 22151MG  22342.29853100  .00003991  00000+0  24222-2 0  9999
2 54580  98.8722 346.9676 0109815  52.6162 308.4943 14.03887639  2997
CZ-6A DEB               
1 54581U 22151MH  22342.06634598  .00000569  00000+0  19668-3 0  9990
2 54581  98.6995 346.9553 0120184 224.9510 134.1897 14.35826338  3037
CZ-6A DEB               
1 54582U 22151MJ  22342.47255382  .00008551  00000+0  22041-2 0  9993
2 54582  98.6829 347.4634 0185862 232.4705 125.9467 14.40451821  3100
CZ-6A DEB               
1 54583U 22151MK  22342.24221564  .00002095  00000+0  14151-2 0  9994
2 54583  98.8148 346.3302 0096886  20.2241 340.2721 13.99202787  2979
CZ-6A DEB               
1 54584U 22151ML  22342.46606812  .00001624  00000+0  12258-2 0  9995
2 54584  98.8016 346.1307 0138893  22.8060 337.9189 13.91060304  2991
CZ-6A DEB               
1 54585U 22151MM  22342.21936482  .00007062  00000+0  22645-2 0  9991
2 54585  98.6957 347.0596 0127995 230.3521 128.6315 14.35200296  3052
CZ-6A DEB               
1 54586U 22151MN  22342.24402859  .00001200  00000+0  58875-3 0  9994
2 54586  98.7956 347.0210 0070260  89.6829 271.2397 14.18325441  3027
CZ-6A DEB               
1 54587U 22151MP  22342.23780770  .00000513  00000+0  38371-3 0  9990
2 54587  98.7653 345.8652 0120332  28.9321 331.8443 13.95551644  3000
2022-164A               
1 54588U 22164A   22342.61939176 -.00000043  00000+0  00000+0 0  9996
2 54588  98.3554   9.9786 0008402 274.4949  85.5279 14.44509194   230
2022-164B               
1 54589U 22164B   22342.48943290 -.00000668  21132-5  00000+0 0  9992
2 54589  98.3707   9.9929 0382128 100.4081 264.0457 15.07457349   220
CZ-6A DEB               
1 54590U 22151MQ  22341.66393794  .00002960  00000+0  12827-2 0  9991
2 54590  98.5918 345.3214 0082578 255.0521 104.1504 14.23184831  3066
CZ-6A DEB               
1 54591U 22151MR  22341.74023643  .00004913  00000+0  13220-2 0  9992
2 54591  98.8038 347.4418 0187309 238.4729 119.8044 14.38592732  3145
CZ-6A DEB               
1 54592U 22151MS  22341.47654596  .00005120  00000+0  18920-2 0  9993
2 54592  98.6060 345.5024 0104445 239.7123 119.3693 14.29838317  3083
CZ-6A DEB               
1 54593U 22151MT  22341.45596951  .00064758  00000+0  22728-1 0  9994
2 54593  98.5504 345.0018 0149135 260.5937  97.8359 14.28560838  3071
CZ-6A DEB               
1 54594U 22151MU  22341.66153581  .00006670  00000+0  15756-2 0  9999
2 54594  98.7072 347.0733 0159296 211.5893 147.5661 14.47021215  2436
CZ-6A DEB               
1 54595U 22151MV  22341.68761178  .00000867  00000+0  30943-3 0  9997
2 54595  98.6301 346.0218 0106758 227.2267 131.9901 14.33612721  3126
CZ-6A DEB               
1 54596U 22151MW  22341.69917945  .00000215  00000+0  14671-3 0  9991
2 54596  98.8275 346.3108 0043762  11.6840 348.5335 14.09356827  3084
